OBJECT_NAME,OBJECT_ID,EPOCH,MEAN_MOTION,ECCENTRICITY,INCLINATION,RA_OF_ASC_NODE,ARG_OF_PERICENTER,MEAN_ANOMALY,EPHEMERIS_TYPE,CLASSIFICATION_TYPE,NORAD_CAT_ID,ELEMENT_SET_NO,REV_AT_EPOCH,BSTAR,MEAN_MOTION_DOT,MEAN_MOTION_DDOT
STARLINK-38005,2026-145A,2026-07-13T00:24:08.536608,15.75304422,.000021,97.2835,40.7450,70.1808,289.9480,0,U,69677,999,283,.17059E-2,.26365E-2,0
STARLINK-38009,2026-145B,2026-07-13T00:21:36.137376,15.75310782,.0000072,97.2833,40.7477,78.9918,281.1356,0,U,69678,999,283,.18015E-2,.279011E-2,0
STARLINK-37998,2026-145C,2026-07-13T00:18:02.611008,15.75268104,.0000491,97.2845,40.7511,92.6141,267.5180,0,U,69679,999,283,.10313E-2,.157084E-2,0
STARLINK-37994,2026-145D,2026-07-13T00:00:02.000160,15.75189911,.0001348,97.2844,40.7340,97.2929,183.9536,0,U,69680,999,407,-.32542E-3,-.48394E-3,0
STARLINK-37992,2026-145E,2026-07-12T16:00:01.998720,15.75296946,.0001451,97.2847,40.3863,84.4071,109.8551,0,U,69681,999,402,-.16032E-2,-.233928E-2,0
STARLINK-37997,2026-145F,2026-07-13T00:00:02.000160,15.75201626,.0001296,97.2846,40.7368,96.2504,190.9907,0,U,69682,999,407,-.43924E-3,-.6518E-3,0
STARLINK-37990,2026-145G,2026-07-13T00:19:02.705664,15.75397935,.0001922,97.2842,40.7497,62.7428,297.4033,0,U,69683,999,283,-.3102E-2,-.443671E-2,0
STARLINK-37951,2026-145H,2026-07-13T00:17:32.301024,15.75238869,.0001095,97.2836,40.7495,73.1433,286.9952,0,U,69684,999,283,.10508E-2,.159908E-2,0
STARLINK-37957,2026-145J,2026-07-13T00:16:00.855264,15.75291925,.0001067,97.2852,40.7530,86.2104,273.9283,0,U,69685,999,283,.18177E-2,.281363E-2,0
STARLINK-37968,2026-145K,2026-07-13T00:07:22.571040,15.75261341,.0001108,97.2836,40.7603,78.1852,281.9538,0,U,69686,999,283,.10842E-2,.165259E-2,0
STARLINK-37977,2026-145L,2026-07-13T00:06:21.646080,15.75266497,.0001335,97.2847,40.7619,94.2134,265.9284,0,U,69687,999,283,.12451E-2,.190409E-2,0
STARLINK-37908,2026-145M,2026-07-13T00:03:18.624960,15.75312981,.0000742,97.2852,40.7657,67.1952,292.9391,0,U,69688,999,283,.19481E-2,.302593E-2,0
STARLINK-37979,2026-145N,2026-07-13T00:02:48.037632,15.75273181,.0000694,97.2846,40.7653,74.5939,285.5403,0,U,69689,999,283,.12342E-2,.188768E-2,0
STARLINK-37940,2026-145P,2026-07-13T00:01:16.602240,15.75267832,.0000801,97.2844,40.7675,86.8162,273.3195,0,U,69690,999,283,.1208E-2,.184613E-2,0
STARLINK-37961,2026-145Q,2026-07-12T23:56:42.311616,15.75289524,.000105,97.2844,40.7716,66.5801,293.5575,0,U,69691,999,283,.14936E-2,.229733E-2,0
STARLINK-37787,2026-145R,2026-07-13T01:25:08.317920,15.75172608,.00024,97.2835,40.8406,70.9961,289.1564,0,U,69692,999,284,.11862E-2,.180458E-2,0
STARLINK-37962,2026-145S,2026-07-13T01:22:35.751072,15.75182603,.0001924,97.2847,40.8440,78.4355,281.7126,0,U,69693,999,284,.1134E-2,.172415E-2,0
STARLINK-37953,2026-145T,2026-07-12T23:55:10.889184,15.75297436,.0001112,97.2837,40.7730,73.6264,286.5123,0,U,69694,999,283,.16355E-2,.252339E-2,0
STARLINK-37926,2026-145U,2026-07-13T01:25:38.678016,15.75170001,.0001974,97.2846,40.8408,80.8657,279.2832,0,U,69695,999,284,.92659E-3,.140253E-2,0
STARLINK-37959,2026-145V,2026-07-13T01:24:07.131168,15.75173010,.0001778,97.2848,40.8413,73.8020,286.3441,0,U,69696,999,284,.11548E-2,.175571E-2,0
STARLINK-37976,2026-145W,2026-07-13T01:20:02.893920,15.75238569,.0000439,97.2832,40.8465,349.2191,10.9064,0,U,69697,999,284,.6565E-3,.99142E-3,0
STARLINK-37912,2026-145X,2026-07-13T01:18:31.772160,15.75274156,.0001317,97.2840,40.8486,31.0813,329.0530,0,U,69698,999,284,.1028E-2,.156612E-2,0
STARLINK-37974,2026-145Y,2026-07-13T01:17:31.036416,15.75320930,.0001748,97.2835,40.8492,46.1339,314.0071,0,U,69699,999,284,.17711E-2,.274257E-2,0
STARLINK-37955,2026-145Z,2026-07-13T02:45:26.292096,15.75213493,.0001918,97.2842,40.9189,92.9542,267.1943,0,U,69700,999,285,.52163E-3,.78475E-3,0
STRIX-8,2026-146A,2026-07-12T23:04:44.351616,15.04423064,.0007518,41.9901,25.4660,7.3301,352.7634,0,U,69701,999,244,.19294E-3,.2552E-4,0
ELECTRON R/B,2026-146B,2026-07-12T22:44:28.756320,15.73290745,.0175375,42.0747,16.4877,4.2406,355.9889,0,U,69702,999,255,.11228E-2,.437485E-2,.666E-4
ELECTRON KICK STAGE R/B,2026-146C,2026-07-12T21:21:09.192672,15.04932996,.0009346,41.9885,25.7883,8.0988,351.9988,0,U,69703,999,243,.18195E-3,.2431E-4,0
STARLINK-38055,2026-147A,2026-07-13T01:55:36.128928,15.80909405,.0000859,97.2842,230.3440,102.1932,257.9432,0,U,69704,999,352,.13425E-2,.266151E-2,0
STARLINK-37898,2026-147B,2026-07-13T01:54:24.786720,15.80897557,.0000962,97.2846,230.3453,91.8654,268.2725,0,U,69705,999,352,.10008E-2,.196668E-2,0
STARLINK-37970,2026-147C,2026-07-13T01:53:19.818240,15.80888101,.0001282,97.2833,230.3462,104.5065,255.6346,0,U,69706,999,352,.78992E-3,.154379E-2,0
